CCSDS_OEM_VERS = 1.0
CREATION_DATE  = 2017-05-11T11:37:04
ORIGINATOR     = GMAT USER

META_START
OBJECT_NAME          = MOPSSat_alt_35785_km_RAAN_180_088
OBJECT_ID            = SatId
CENTER_NAME          = Earth
REF_FRAME            = EME2000
TIME_SYSTEM          = UTC
START_TIME           = 2017-01-01T00:00:00.000
USEABLE_START_TIME   = 2017-01-01T00:00:00.000
USEABLE_STOP_TIME    = 2017-01-02T00:00:00.000
STOP_TIME            = 2017-01-02T00:00:00.000
INTERPOLATION        = Lagrange
INTERPOLATION_DEGREE = 7 
META_STOP


                                                                                   

2017-01-01T05:02:30.000  -9.498594307645304e+03  -4.097006369821433e+04   7.151686217866841e+02   2.995580590388660e+00  -7.248508884179513e-01   1.263772746469564e-02
2017-01-01T05:02:40.000  -9.468635959863750e+03  -4.097730123448324e+04   7.152948073551212e+02   2.996088605352929e+00  -7.226562864975747e-01   1.259938484331291e-02
2017-01-01T05:02:50.000  -9.438672539945108e+03  -4.098451682304533e+04   7.154206094677886e+02   2.996595004828238e+00  -7.204613441742945e-01   1.256103626057100e-02
2017-01-01T05:03:00.000  -9.408704064180762e+03  -4.099171046046999e+04   7.155460280646103e+02   2.997099788607687e+00  -7.182660626567322e-01   1.252268173759847e-02
2017-01-01T05:03:10.000  -9.378730548866610e+03  -4.099888214333813e+04   7.156710630857095e+02   2.997602956485245e+00  -7.160704431537758e-01   1.248432129552856e-02
2017-01-01T05:03:20.000  -9.348752010196064e+03  -4.100603186826839e+04   7.157957144718706e+02   2.998104508257600e+00  -7.138744868667388e-01   1.244595495536224e-02
2017-01-01T05:03:30.000  -9.318768464331259e+03  -4.101315963189930e+04   7.159199821642234e+02   2.998604443722888e+00  -7.116781949945810e-01   1.240758273805935e-02
2017-01-01T05:03:40.000  -9.288779927403113e+03  -4.102026543088940e+04   7.160438661042479e+02   2.999102762680718e+00  -7.094815687339079e-01   1.236920466453865e-02
2017-01-01T05:03:50.000  -9.258786415439636e+03  -4.102734926193335e+04   7.161673662340537e+02   2.999599464933287e+00  -7.072846092737246e-01   1.233082075558612e-02
2017-01-01T05:04:00.000  -9.228787944473275e+03  -4.103441112173710e+04   7.162904824959488e+02   3.000094550283650e+00  -7.050873178032961e-01   1.229243103199229e-02
2017-01-01T05:04:10.000  -9.198784530551795e+03  -4.104145100701562e+04   7.164132148323982e+02   3.000588018535552e+00  -7.028896955129446e-01   1.225403551456618e-02
2017-01-01T05:04:20.000  -9.168776189767821e+03  -4.104846891448439e+04   7.165355631858774e+02   3.001079869492838e+00  -7.006917435962131e-01   1.221563422417318e-02
2017-01-01T05:04:30.000  -9.138762938283198e+03  -4.105546484085559e+04   7.166575274988033e+02   3.001570102959174e+00  -6.984934632516520e-01   1.217722718176613e-02
2017-01-01T05:04:40.000  -9.108744792240559e+03  -4.106243878285787e+04   7.167791077138818e+02   3.002058718739452e+00  -6.962948556763375e-01   1.213881440827217e-02
2017-01-01T05:04:50.000  -9.078721768159330e+03  -4.106939073714663e+04   7.169003037725424e+02   3.002545716633497e+00  -6.940959220948764e-01   1.210039592509944e-02
2017-01-01T05:05:00.000  -9.048693882455938e+03  -4.107632070041341e+04   7.170211156168443e+02   3.003031096443722e+00  -6.918966637242663e-01   1.206197175352317e-02
2017-01-01T05:05:10.000  -9.018661151622167e+03  -4.108322866934480e+04   7.171415431887618e+02   3.003514857972263e+00  -6.896970817869595e-01   1.202354191491393e-02
2017-01-01T05:05:20.000  -8.988623591534368e+03  -4.109011464078175e+04   7.172615864329607e+02   3.003997001032124e+00  -6.874971774602685e-01   1.198510642985364e-02
2017-01-01T05:05:30.000  -8.958581218142448e+03  -4.109697861156053e+04   7.173812452940255e+02   3.004477525436049e+00  -6.852969519268272e-01   1.194666531901725e-02
2017-01-01T05:05:40.000  -8.928534047313822e+03  -4.110382057854923e+04   7.175005197170960e+02   3.004956430999066e+00  -6.830964063631618e-01   1.190821860297303e-02
2017-01-01T05:05:50.000  -8.898482095221892e+03  -4.111064053855607e+04   7.176194096462688e+02   3.005433717532072e+00  -6.808955419681478e-01   1.186976630267969e-02
2017-01-01T05:06:00.000  -8.868425378057804e+03  -4.111743848839826e+04   7.177379150257983e+02   3.005909384846656e+00  -6.786943599418921e-01   1.183130843911754e-02
2017-01-01T05:06:10.000  -8.838363912030180e+03  -4.112421442490090e+04   7.178560358000766e+02   3.006383432755018e+00  -6.764928614857176e-01   1.179284503328813e-02
2017-01-01T05:06:20.000  -8.808297713654778e+03  -4.113096834483463e+04   7.179737719125474e+02   3.006855861065620e+00  -6.742910478233718e-01   1.175437610658485e-02
2017-01-01T05:06:30.000  -8.778226799364569e+03  -4.113770024500073e+04   7.180911233071882e+02   3.007326669589127e+00  -6.720889201724728e-01   1.171590168029403e-02
2017-01-01T05:06:40.000  -8.748151185663246e+03  -4.114441012219712e+04   7.182080899279198e+02   3.007795858136034e+00  -6.698864797557545e-01   1.167742177579138e-02
2017-01-01T05:06:50.000  -8.718070888446542e+03  -4.115109797337002e+04   7.183246717212484e+02   3.008263426527273e+00  -6.676837277513616e-01   1.163893641367364e-02
2017-01-01T05:07:00.000  -8.687985923680853e+03  -4.115776379546222e+04   7.184408686336209e+02   3.008729374583591e+00  -6.654806653425499e-01   1.160044561462681e-02
2017-01-01T05:07:10.000  -8.657896307249885e+03  -4.116440758544772e+04   7.185566806120280e+02   3.009193702127984e+00  -6.632772937064525e-01   1.156194939922999e-02
2017-01-01T05:07:20.000  -8.627802055343691e+03  -4.117102934024263e+04   7.186721076024536e+02   3.009656408979459e+00  -6.610736140425739e-01   1.152344778845316e-02
2017-01-01T05:07:30.000  -8.597703184170012e+03  -4.117762905677225e+04   7.187871495510407e+02   3.010117494957725e+00  -6.588696275516477e-01   1.148494080328780e-02
2017-01-01T05:07:40.000  -8.567599709954000e+03  -4.118420673196980e+04   7.189018064040719e+02   3.010576959883108e+00  -6.566653354356167e-01   1.144642846474657e-02
2017-01-01T05:07:50.000  -8.537491649228290e+03  -4.119076236271609e+04   7.190160781069166e+02   3.011034803572347e+00  -6.544607389188701e-01   1.140791079423428e-02
2017-01-01T05:08:00.000  -8.507379018442516e+03  -4.119729594592197e+04   7.191299646054687e+02   3.011491025844337e+00  -6.522558392196541e-01   1.136938781304847e-02
2017-01-01T05:08:10.000  -8.477261834119974e+03  -4.120380747849488e+04   7.192434658455629e+02   3.011945626517799e+00  -6.500506375615437e-01   1.133085954257979e-02
2017-01-01T05:08:20.000  -8.447140112166608e+03  -4.121029695748830e+04   7.193565817755800e+02   3.012398605421712e+00  -6.478451351228435e-01   1.129232600342799e-02
2017-01-01T05:08:30.000  -8.417013868563703e+03  -4.121676437995164e+04   7.194693123438317e+02   3.012849962384840e+00  -6.456393330873099e-01   1.125378721628810e-02
2017-01-01T05:08:40.000  -8.386883119189124e+03  -4.122320974296929e+04   7.195816574992393e+02   3.013299697238447e+00  -6.434332326310606e-01   1.121524320172171e-02
2017-01-01T05:08:50.000  -8.356747880297899e+03  -4.122963304355528e+04   7.196936171894962e+02   3.013747809808943e+00  -6.412268349577640e-01   1.117669398077179e-02
2017-01-01T05:09:00.000  -8.326608168125673e+03  -4.123603427874040e+04   7.198051913625925e+02   3.014194299923977e+00  -6.390201412696055e-01   1.113813957445542e-02
2017-01-01T05:09:10.000  -8.296463998980144e+03  -4.124241344555227e+04   7.199163799664605e+02   3.014639167411033e+00  -6.368131527739779e-01   1.109958000388069e-02
2017-01-01T05:09:20.000  -8.266315389205856e+03  -4.124877054102426e+04   7.200271829491348e+02   3.015082412098071e+00  -6.346058706809049e-01   1.106101529020171e-02
2017-01-01T05:09:30.000  -8.236162355167082e+03  -4.125510556219792e+04   7.201376002587934e+02   3.015524033813679e+00  -6.323982962017893e-01   1.102244545459664e-02
2017-01-01T05:09:40.000  -8.206004913211729e+03  -4.126141850613052e+04   7.202476318438878e+02   3.015964032387604e+00  -6.301904305467684e-01   1.098387051822163e-02
2017-01-01T05:09:50.000  -8.175843079654692e+03  -4.126770936989987e+04   7.203572776532291e+02   3.016402407651098e+00  -6.279822749234966e-01   1.094529050218946e-02
2017-01-01T05:10:00.000  -8.145676870742049e+03  -4.127397815061016e+04   7.204665376360888e+02   3.016839159437313e+00  -6.257738305345231e-01   1.090670542752373e-02
2017-01-01T05:10:10.000  -8.115506302742810e+03  -4.128022484537366e+04   7.205754117418791e+02   3.017274287580023e+00  -6.235650985840097e-01   1.086811531527626e-02
2017-01-01T05:10:20.000  -8.085331391550933e+03  -4.128644945139069e+04   7.206838999215486e+02   3.017707791919200e+00  -6.213560802485983e-01   1.082952018601804e-02
2017-01-01T05:10:30.000  -8.055152153167496e+03  -4.129265196585216e+04   7.207920021258810e+02   3.018139672294223e+00  -6.191467767127047e-01   1.079092006045594e-02
2017-01-01T05:10:40.000  -8.024968603518480e+03  -4.129883238597661e+04   7.208997183061438e+02   3.018569928546456e+00  -6.169371891551830e-01   1.075231495919965e-02
2017-01-01T05:10:50.000  -7.994780759160457e+03  -4.130499070886559e+04   7.210070484115658e+02   3.018998560509186e+00  -6.147273188009829e-01   1.071370490366431e-02
2017-01-01T05:11:00.000  -7.964588636574936e+03  -4.131112693164850e+04   7.211139923918605e+02   3.019425568017700e+00  -6.125171668694918e-01   1.067508991516786e-02
2017-01-01T05:11:10.000  -7.934392252350426e+03  -4.131724105144497e+04   7.212205501965735e+02   3.019850950906671e+00  -6.103067345878654e-01   1.063647001516404e-02
2017-01-01T05:11:20.000  -7.904191622700783e+03  -4.132333306546503e+04   7.213267217768256e+02   3.020274709017131e+00  -6.080960231557653e-01   1.059784522462616e-02
2017-01-01T05:11:30.000  -7.873986763862595e+03  -4.132940297092597e+04   7.214325070838651e+02   3.020696842190685e+00  -6.058850337744490e-01   1.055921556455553e-02
